NORAD_CAT_ID,OBJECT_NAME,OBJECT_TYPE,EPOCH,MEAN_MOTION,ECCENTRICITY,INCLINATION,RA_OF_ASC_NODE,ARG_OF_PERICENTER,MEAN_ANOMALY,BSTAR,MEAN_MOTION_DOT,MEAN_MOTION_DDOT,TLE_LINE0,TLE_LINE1,TLE_LINE2,SEMIMAJOR_AXIS,PERIOD,APOGEE,PERIGEE,DECAYED
53275.0,STARLINK-4179,PAYLOAD,2024-01-07 14:14:28,15.08796432,0.0001701,53.2176,139.9743,91.2912,268.8275,0.00054142,8.329e-05,0.0,0 STARLINK-4179,1 53275U 22086AK  24007.59337997  .00008329  00000-0  54142-3 0  9996,2 53275  53.2176 139.9743 0001701  91.2912 268.8275 15.08796432 81616,6918.014,95.44,541.055,538.702,0.0
53275.0,STARLINK-4179,PAYLOAD,2024-01-08 14:05:14,15.08845197,0.0001435,53.2179,135.5131,96.1411,263.9745,-2.1182e-06,-3.22e-06,0.0,0 STARLINK-4179,1 53275U 22086AK  24008.58696822 -.00000322  00000-0 -21182-5 0  9998,2 53275  53.2179 135.5131 0001435  96.1411 263.9745 15.08845197 81761,6917.865,95.437,540.722,538.737,0.0
53275.0,STARLINK-4179,PAYLOAD,2024-01-08 15:40:37,15.08815125,0.0001573,53.2176,135.216,90.3479,269.7694,0.0004395,6.709e-05,0.0,0 STARLINK-4179,1 53275U 22086AK  24008.65321223  .00006709  00000-0  43950-3 0  9994,2 53275  53.2176 135.2160 0001573  90.3479 269.7694 15.08815125 81608,6917.956,95.439,540.91,538.733,0.0
53275.0,STARLINK-4179,PAYLOAD,2024-01-09 07:34:29,15.0883407,0.0001413,53.2171,132.2501,71.2028,288.9117,9.2561e-05,1.185e-05,0.0,0 STARLINK-4179,1 53275U 22086AK  24009.31561454  .00001185  00000-0  92561-4 0  9996,2 53275  53.2171 132.2501 0001413  71.2028 288.9117 15.08834070 81704,6917.899,95.438,540.741,538.786,0.0
53275.0,STARLINK-4179,PAYLOAD,2024-01-09 13:56:01,15.08839259,0.0001421,53.2175,131.0611,71.9436,288.1711,7.3174e-05,8.77e-06,0.0,0 STARLINK-4179,1 53275U 22086AK  24009.58057285  .00000877  00000-0  73174-4 0  9993,2 53275  53.2175 131.0611 0001421  71.9436 288.1711 15.08839259 81915,6917.883,95.438,540.731,538.765,0.0
53275.0,STARLINK-4179,PAYLOAD,2024-01-09 17:06:47,15.08845908,0.0001442,53.2168,130.4639,91.7369,268.3788,0.00010693,1.415e-05,0.0,0 STARLINK-4179,1 53275U 22086AK  24009.71304665  .00001415  00000-0  10693-3 0  9990,2 53275  53.2168 130.4639 0001442  91.7369 268.3788 15.08845908 81763,6917.862,95.437,540.725,538.73,0.0
53275.0,STARLINK-4179,PAYLOAD,2024-01-10 07:25:16,15.08838821,0.0002127,53.2167,127.7901,67.1207,293.0009,2.6765e-05,1.38e-06,0.0,0 STARLINK-4179,1 53275U 22086AK  24010.30921721  .00000138  00000-0  26765-4 0  9994,2 53275  53.2167 127.7901 0002127  67.1207 293.0009 15.08838821 81859,6917.884,95.438,541.22,538.278,0.0
53275.0,STARLINK-4179,PAYLOAD,2024-01-10 16:57:34,15.08845625,0.0001627,53.2171,126.004,72.9217,287.1954,8.3738e-05,1.045e-05,0.0,0 STARLINK-4179,1 53275U 22086AK  24010.70665043  .00001045  00000-0  83738-4 0  9991,2 53275  53.2171 126.0040 0001627  72.9217 287.1954 15.08845625 81919,6917.863,95.437,540.854,538.603,0.0
53275.0,STARLINK-4179,PAYLOAD,2024-01-11 13:37:35,15.08849978,0.0001598,53.2171,122.1369,72.4392,287.6775,7.1781e-05,8.55e-06,0.0,0 STARLINK-4179,1 53275U 22086AK  24011.56776707  .00000855  00000-0  71781-4 0  9999,2 53275  53.2171 122.1369 0001598  72.4392 287.6775 15.08849978 82211,6917.85,95.437,540.82,538.609,0.0
53275.0,STARLINK-4179,PAYLOAD,2024-01-12 10:17:36,15.088408,0.0001439,53.2174,118.2705,79.0522,281.0632,-5.7148e-06,-3.79e-06,0.0,0 STARLINK-4179,1 53275U 22086AK  24012.42889531 -.00000379  00000-0 -57148-5 0  9990,2 53275  53.2174 118.2705 0001439  79.0522 281.0632 15.08840800 82176,6917.878,95.438,540.738,538.747,0.0
53275.0,STARLINK-4179,PAYLOAD,2024-01-12 13:28:22,15.08840211,0.0001396,53.2174,117.6757,87.6152,272.5,-1.3718e-05,-5.06e-06,0.0,0 STARLINK-4179,1 53275U 22086AK  24012.56137525 -.00000506  00000-0 -13718-4 0  9990,2 53275  53.2174 117.6757 0001396  87.6152 272.5000 15.08840211 82363,6917.88,95.438,540.71,538.779,0.0
53275.0,STARLINK-4179,PAYLOAD,2024-01-13 11:43:46,15.08849852,0.0001404,53.2171,113.5118,77.0486,283.0663,-8.1603e-05,-1.587e-05,0.0,0 STARLINK-4179,1 53275U 22086AK  24013.48873322 -.00001587  00000-0 -81603-4 0  9992,2 53275  53.2171 113.5118 0001404  77.0486 283.0663 15.08849852 82338,6917.85,95.437,540.687,538.744,0.0
53275.0,STARLINK-4179,PAYLOAD,2024-01-13 13:19:09,15.0885217,0.0001478,53.2179,113.2153,89.9167,270.1995,-4.3499e-05,-9.8e-06,0.0,0 STARLINK-4179,1 53275U 22086AK  24013.55497029 -.00000980  00000-0 -43499-4 0  9993,2 53275  53.2179 113.2153 0001478  89.9167 270.1995 15.08852170 82513,6917.843,95.437,540.731,538.686,0.0
53275.0,STARLINK-4179,PAYLOAD,2024-01-13 16:29:56,15.08812719,0.0001771,53.2178,112.6179,95.757,264.3624,0.00054284,8.355e-05,0.0,0 STARLINK-4179,1 53275U 22086AK  24013.68745904  .00008355  00000-0  54284-3 0  9990,2 53275  53.2178 112.6179 0001771  95.7570 264.3624 15.08812719 82364,6917.964,95.439,541.054,538.604,0.0
53275.0,STARLINK-4179,PAYLOAD,2024-01-14 11:34:33,15.08837994,0.0001453,53.2174,109.0486,88.5334,271.5824,0.00010355,1.36e-05,0.0,0 STARLINK-4179,1 53275U 22086AK  24014.48233620  .00001360  00000-0  10355-3 0  9996,2 53275  53.2174 109.0486 0001453  88.5334 271.5824 15.08837994 82483,6917.887,95.438,540.757,538.746,0.0
53275.0,STARLINK-4179,PAYLOAD,2024-01-14 13:09:56,15.08848117,0.000143,53.2176,108.7523,90.8773,269.2383,0.00021852,3.192e-05,0.0,0 STARLINK-4179,1 53275U 22086AK  24014.54856797  .00003192  00000-0  21852-3 0  9998,2 53275  53.2176 108.7523 0001430  90.8773 269.2383 15.08848117 82664,6917.856,95.437,540.71,538.731,0.0
53275.0,STARLINK-4179,PAYLOAD,2024-01-15 11:25:20,15.08848677,0.0001502,53.2177,104.593,103.1986,256.9174,2.5696e-05,1.21e-06,0.0,0 STARLINK-4179,1 53275U 22086AK  24015.47593209  .00000121  00000-0  25696-4 0  9997,2 53275  53.2177 104.5930 0001502 103.1986 256.9174 15.08848677 82634,6917.854,95.437,540.758,538.68,0.0
53275.0,STARLINK-4179,PAYLOAD,2024-01-15 14:36:06,15.08855697,0.0001499,53.2184,103.9983,96.9455,263.1708,9.3565e-05,1.202e-05,0.0,0 STARLINK-4179,1 53275U 22086AK  24015.60840567  .00001202  00000-0  93565-4 0  9995,2 53275  53.2184 103.9983 0001499  96.9455 263.1708 15.08855697 82822,6917.832,95.437,540.734,538.66,0.0
53275.0,STARLINK-4179,PAYLOAD,2024-01-16 11:16:08,15.0883831,0.000142,53.2174,100.1345,92.3069,267.8086,-8.2887e-05,-1.607e-05,0.0,0 STARLINK-4179,1 53275U 22086AK  24016.46954451 -.00001607  00000-0 -82887-4 0  9994,2 53275  53.2174 100.1345 0001420  92.3069 267.8086 15.08838310 82785,6917.886,95.438,540.733,538.768,0.0
53275.0,STARLINK-4179,PAYLOAD,2024-01-16 12:51:31,15.08840407,0.0001387,53.2176,99.8384,88.2837,271.8314,-6.1191e-05,-1.262e-05,0.0,0 STARLINK-4179,1 53275U 22086AK  24016.53578295 -.00001262  00000-0 -61191-4 0  9992,2 53275  53.2176  99.8384 0001387  88.2837 271.8314 15.08840407 82962,6917.879,95.438,540.704,538.785,0.0
53275.0,STARLINK-4179,PAYLOAD,2024-01-17 12:42:18,15.08844797,0.0001614,53.2167,95.3761,73.704,286.413,5.9683e-05,6.62e-06,0.0,0 STARLINK-4179,1 53275U 22086AK  24017.52938090  .00000662  00000-0  59683-4 0  9999,2 53275  53.2167  95.3761 0001614  73.7040 286.4130 15.08844797 83112,6917.866,95.437,540.847,538.614,0.0
53275.0,STARLINK-4179,PAYLOAD,2024-01-18 10:57:43,15.08823877,0.0002273,53.2178,91.2121,56.2732,303.8476,0.000813,0.00012669,0.0,0 STARLINK-4179,1 53275U 22086AK  24018.45675654  .00012669  00000-0  81300-3 0  9996,2 53275  53.2178  91.2121 0002273  56.2732 303.8476 15.08823877 83084,6917.93,95.439,541.367,538.222,0.0
53275.0,STARLINK-4179,PAYLOAD,2024-01-19 04:26:57,15.08846489,0.0001943,53.2169,87.9447,64.7769,295.3425,5.8035e-05,6.36e-06,0.0,0 STARLINK-4179,1 53275U 22086AK  24019.18538308  .00000636  00000-0  58035-4 0  9992,2 53275  53.2169  87.9447 0001943  64.7769 295.3425 15.08846489 83199,6917.861,95.437,541.07,538.381,0.0
53275.0,STARLINK-4179,PAYLOAD,2024-01-19 10:48:29,15.08846679,0.0001954,53.2168,86.7528,64.9056,295.2139,6.2891e-05,7.13e-06,0.0,0 STARLINK-4179,1 53275U 22086AK  24019.45034241  .00000713  00000-0  62891-4 0  9990,2 53275  53.2168  86.7528 0001954  64.9056 295.2139 15.08846679 83404,6917.86,95.437,541.077,538.373,0.0
53275.0,STARLINK-4179,PAYLOAD,2024-01-20 10:39:16,15.08845937,0.0001726,53.2178,82.2924,95.9841,264.1348,1.021e-05,-1.26e-06,0.0,0 STARLINK-4179,1 53275U 22086AK  24020.44394068 -.00000126  00000-0  10210-4 0  9994,2 53275  53.2178  82.2924 0001726  95.9841 264.1348 15.08845937 83389,6917.862,95.437,540.921,538.533,0.0
53275.0,STARLINK-4179,PAYLOAD,2024-01-20 13:50:02,15.08850572,0.0001674,53.2167,81.6955,88.9249,271.1935,8.4613e-06,-1.53e-06,0.0,0 STARLINK-4179,1 53275U 22086AK  24020.57641736 -.00000153  00000-0  84613-5 0  9994,2 53275  53.2167  81.6955 0001674  88.9249 271.1935 15.08850572 83572,6917.848,95.437,540.871,538.555,0.0
53275.0,STARLINK-4179,PAYLOAD,2024-01-20 23:22:21,15.08843965,0.000158,53.2162,79.9067,122.8095,237.3049,-7.6839e-06,-4.1e-06,0.0,0 STARLINK-4179,1 53275U 22086AK  24020.97385964 -.00000410  00000-0 -76839-5 0  9994,2 53275  53.2162  79.9067 0001580 122.8095 237.3049 15.08843965 83639,6917.868,95.437,540.826,538.64,0.0
53275.0,STARLINK-4179,PAYLOAD,2024-01-21 10:30:03,15.08840465,0.0001515,53.2175,77.8333,84.4899,275.6266,4.2467e-05,3.88e-06,0.0,0 STARLINK-4179,1 53275U 22086AK  24021.43754334  .00000388  00000-0  42467-4 0  9998,2 53275  53.2175  77.8333 0001515  84.4899 275.6266 15.08840465 83536,6917.879,95.438,540.792,538.696,0.0
53275.0,STARLINK-4179,PAYLOAD,2024-01-22 07:10:04,15.08839383,0.0001624,53.2171,73.9656,107.7242,252.3928,-2.2926e-05,-6.53e-06,0.0,0 STARLINK-4179,1 53275U 22086AK  24022.29866713 -.00000653  00000-0 -22926-4 0  9993,2 53275  53.2171  73.9656 0001624 107.7242 252.3928 15.08839383 83836,6917.882,95.438,540.871,538.624,0.0
53275.0,STARLINK-4179,PAYLOAD,2024-01-22 10:20:50,15.08842906,0.0001571,53.217,73.3711,103.8742,256.2425,4.9051e-06,-2.1e-06,0.0,0 STARLINK-4179,1 53275U 22086AK  24022.43114415 -.00000210  00000-0  49051-5 0  9991,2 53275  53.2170  73.3711 0001571 103.8742 256.2425 15.08842906 83856,6917.872,95.437,540.823,538.65,0.0
